OBJECT_NAME,OBJECT_ID,EPOCH,MEAN_MOTION,ECCENTRICITY,INCLINATION,RA_OF_ASC_NODE,ARG_OF_PERICENTER,MEAN_ANOMALY,EPHEMERIS_TYPE,CLASSIFICATION_TYPE,NORAD_CAT_ID,ELEMENT_SET_NO,REV_AT_EPOCH,BSTAR,MEAN_MOTION_DOT,MEAN_MOTION_DDOT
STARLINK-35260,2025-216T,2026-05-21T07:11:04.141536,15.30213628,.00001876,53.1592,355.3949,287.3144,72.7836,0,U,65751,999,3766,.58775227E-3,.17096E-3,0
STARLINK-34893,2025-216U,2026-05-20T22:33:53.207424,15.30215187,.00013182,53.1619,357.4259,75.4364,284.6783,0,U,65752,999,3757,.55957283E-3,.16258E-3,0
STARLINK-34894,2025-216V,2026-05-20T22:04:59.468736,15.30205053,.00016673,53.1628,357.2958,96.8268,263.2923,0,U,65753,999,3757,.69278365E-3,.20218E-3,0
STARLINK-35287,2025-216W,2026-05-21T06:51:19.086048,15.30201221,.00011395,53.1607,355.3079,49.4196,310.6904,0,U,65754,999,3762,.32702668E-3,.9339E-4,0
STARLINK-35294,2025-216X,2026-05-21T07:01:58.345824,15.30176772,.00012825,53.1538,355.3531,43.3328,316.7773,0,U,65755,999,3766,.61390474E-3,.17854E-3,0
STARLINK-35275,2025-216Y,2026-05-20T20:58:17.460480,15.30214132,.00012931,53.1623,357.7184,86.5849,273.5300,0,U,65756,999,3759,.67372931E-3,.19656E-3,0
STARLINK-35211,2025-216Z,2026-05-20T08:15:13.541472,15.30204522,.00009797,53.1600,0.0969,86.0187,274.0926,0,U,65757,999,3751,.43926933E-3,.12675E-3,0
STARLINK-35313,2025-216AA,2026-05-20T23:46:38.238240,15.30206320,.00011079,53.1636,357.0196,99.7966,260.3159,0,U,65758,999,3757,.39705591E-3,.11421E-3,0
STARLINK-34692,2025-216AB,2026-05-20T22:47:32.484192,15.30208719,.00013148,53.1613,357.4806,93.1660,266.9491,0,U,65759,999,3756,.63353956E-3,.18456E-3,0
STARLINK-34890,2025-216AC,2026-05-20T21:17:52.987776,15.30214367,.00011249,53.1595,357.0929,96.2401,263.8728,0,U,65760,999,3759,.62174473E-3,.18108E-3,0
STARLINK-34889,2025-216AD,2026-05-20T22:41:27.719808,15.30208907,.0000729,53.1590,357.4512,96.9742,263.1341,0,U,65761,999,3765,.69692255E-3,.20344E-3,0
KUIPER-00120,2025-217A,2026-05-21T03:10:04.044000,14.79965008,.00004353,51.8988,92.7201,88.3493,271.7519,0,U,65762,999,3546,.70362265E-3,.5151E-4,0
KUIPER-00132,2025-217B,2026-05-21T01:25:08.164992,15.41808615,.00056741,51.8573,11.5299,214.4692,145.5929,0,U,65763,999,3658,.63287654E-3,.26942E-3,0
KUIPER-00133,2025-217C,2026-05-21T03:58:45.334272,14.79934860,.00006507,51.9034,92.6560,70.2164,289.8868,0,U,65764,999,3547,.29020436E-3,.1992E-4,0
KUIPER-00139,2025-217D,2026-05-21T02:13:41.477088,15.02353111,.0007503,51.8856,62.1919,185.2013,174.8883,0,U,65765,999,3589,.30724161E-3,.3841E-4,0
KUIPER-00142,2025-217E,2026-05-21T02:00:02.373984,14.79953296,.00009047,51.8999,75.4607,79.5632,280.5432,0,U,65766,999,3570,.31606047E-3,.219E-4,0
KUIPER-00145,2025-217F,2026-05-21T01:56:09.886272,14.79937181,.00008418,51.8988,77.9897,91.0920,269.0138,0,U,65767,999,3566,.69444228E-4,.308E-5,0
KUIPER-00147,2025-217G,2026-05-21T02:40:54.130368,14.79932678,.00011671,51.8989,80.3410,60.6800,299.4279,0,U,65768,999,3563,.30743001E-3,.2123E-4,0
KUIPER-00148,2025-217H,2026-05-20T23:46:25.254912,14.75815548,.00009075,51.9046,61.9183,98.3595,261.7469,0,U,65769,999,3588,.29611066E-3,.1836E-4,0
KUIPER-00150,2025-217J,2026-05-21T04:02:37.063392,14.79929360,.00007346,51.9017,90.1119,83.5876,276.5170,0,U,65770,999,3550,.31621853E-3,.219E-4,0
KUIPER-00151,2025-217K,2026-05-21T00:59:46.658400,14.79931768,.00009773,51.9020,83.1713,65.6268,294.4796,0,U,65771,999,3559,-.68478109E-4,-.743E-5,0
KUIPER-00152,2025-217L,2026-05-21T02:07:48.187488,14.79940058,.00010452,51.9009,70.4496,72.9707,287.1370,0,U,65772,999,3577,.35727518E-3,.2504E-4,0
KUIPER-00153,2025-217M,2026-05-21T02:15:41.092704,14.79896938,.00009173,51.9033,65.4907,107.5576,252.5487,0,U,65773,999,3584,.25609751E-3,.173E-4,0
KUIPER-00155,2025-217N,2026-05-20T22:06:35.731296,14.79927797,.00010648,51.9038,38.7197,122.3473,237.7593,0,U,65774,999,3620,.35149002E-3,.2459E-4,0
KUIPER-00156,2025-217P,2026-05-21T01:26:57.527520,14.79941782,.00008422,51.9033,65.6209,99.9181,260.1877,0,U,65775,999,3583,.33593366E-3,.2341E-4,0
KUIPER-00163,2025-217R,2026-05-21T06:28:41.907072,15.80646617,.00025132,51.8956,45.2441,127.5095,232.6139,0,U,65777,999,3613,.51537665E-3,.101317E-2,0
KUIPER-00165,2025-217S,2026-05-21T02:48:40.286880,14.79937650,.00010166,51.9000,75.3258,81.1865,278.9212,0,U,65778,999,3570,-.2562355E-5,-.241E-5,0
KUIPER-00166,2025-217T,2026-05-21T00:42:13.192704,14.79920361,.00006722,51.9031,63.2532,99.9555,260.1484,0,U,65779,999,3586,.32942392E-3,.229E-4,0
KUIPER-00167,2025-217U,2026-05-21T00:55:52.723488,14.79930937,.00007824,51.8958,85.6066,82.4626,277.6425,0,U,65780,999,3555,.1453792E-5,-.21E-5,0
KUIPER-00168,2025-217V,2026-05-20T23:45:49.712544,14.79931092,.00009173,51.9028,68.3915,85.0337,275.0731,0,U,65781,999,3579,-.1696501E-5,-.234E-5,0
