STARLINK-35260          
1 65751U 25216T   26141.29935349  .00017096  00000+0  58775-3 0  9995
2 65751  53.1592 355.3949 0000187 287.3144  72.7836 15.30213628 37660
STARLINK-34893          
1 65752U 25216U   26140.94019916  .00016258  00000+0  55957-3 0  9998
2 65752  53.1619 357.4259 0001318  75.4364 284.6783 15.30215187 37572
STARLINK-34894          
1 65753U 25216V   26140.92013274  .00020218  00000+0  69278-3 0  9990
2 65753  53.1628 357.2958 0001667  96.8268 263.2923 15.30205053 37574
STARLINK-35287          
1 65754U 25216W   26141.28563757  .00009339  00000+0  32703-3 0  9991
2 65754  53.1607 355.3079 0001139  49.4196 310.6904 15.30201221 37628
STARLINK-35294          
1 65755U 25216X   26141.29303641  .00017854  00000+0  61390-3 0  9992
2 65755  53.1538 355.3531 0001282  43.3328 316.7773 15.30176772 37661
STARLINK-35275          
1 65756U 25216Y   26140.87381320  .00019656  00000+0  67373-3 0  9995
2 65756  53.1623 357.7184 0001293  86.5849 273.5300 15.30214132 37597
STARLINK-35211          
1 65757U 25216Z   26140.34390673  .00012675  00000+0  43927-3 0  9992
2 65757  53.1600   0.0969 0000979  86.0187 274.0926 15.30204522 37516
STARLINK-35313          
1 65758U 25216AA  26140.99072035  .00011421  00000+0  39706-3 0  9991
2 65758  53.1636 357.0196 0001107  99.7966 260.3159 15.30206320 37573
STARLINK-34692          
1 65759U 25216AB  26140.94968153  .00018456  00000+0  63354-3 0  9993
2 65759  53.1613 357.4806 0001314  93.1660 266.9491 15.30208719 37564
STARLINK-34890          
1 65760U 25216AC  26140.88741884  .00018108  00000+0  62174-3 0  9991
2 65760  53.1595 357.0929 0001124  96.2401 263.8728 15.30214367 37591
STARLINK-34889          
1 65761U 25216AD  26140.94545972  .00020344  00000+0  69692-3 0  9996
2 65761  53.1590 357.4512 0000729  96.9742 263.1341 15.30208907 37658
KUIPER-00120            
1 65762U 25217A   26141.13199125  .00005151  00000+0  70362-3 0  9990
2 65762  51.8988  92.7201 0000435  88.3493 271.7519 14.79965008 35464
KUIPER-00132            
1 65763U 25217B   26141.05912228  .00026942  00000+0  63288-3 0  9999
2 65763  51.8573  11.5299 0005674 214.4692 145.5929 15.41808615 36581
KUIPER-00133            
1 65764U 25217C   26141.16580248  .00001992  00000+0  29020-3 0  9999
2 65764  51.9034  92.6560 0000650  70.2164 289.8868 14.79934860 35470
KUIPER-00139            
1 65765U 25217D   26141.09284117  .00003841  00000+0  30724-3 0  9996
2 65765  51.8856  62.1919 0007503 185.2013 174.8883 15.02353111 35893
KUIPER-00142            
1 65766U 25217E   26141.08336081  .00002190  00000+0  31606-3 0  9990
2 65766  51.8999  75.4607 0000904  79.5632 280.5432 14.79953296 35701
KUIPER-00145            
1 65767U 25217F   26141.08066998  .00000308  00000+0  69444-4 0  9999
2 65767  51.8988  77.9897 0000841  91.0920 269.0138 14.79937181 35662
KUIPER-00147            
1 65768U 25217G   26141.11173762  .00002123  00000+0  30743-3 0  9998
2 65768  51.8989  80.3410 0001167  60.6800 299.4279 14.79932678 35630
KUIPER-00148            
1 65769U 25217H   26140.99057008  .00001836  00000+0  29611-3 0  9990
2 65769  51.9046  61.9183 0000907  98.3595 261.7469 14.75815548 35880
KUIPER-00150            
1 65770U 25217J   26141.16848453  .00002190  00000+0  31622-3 0  9993
2 65770  51.9017  90.1119 0000734  83.5876 276.5170 14.79929360 35503
KUIPER-00151            
1 65771U 25217K   26141.04151225 -.00000743  00000+0 -68478-4 0  9999
2 65771  51.9020  83.1713 0000977  65.6268 294.4796 14.79931768 35592
KUIPER-00152            
1 65772U 25217L   26141.08875217  .00002504  00000+0  35728-3 0  9994
2 65772  51.9009  70.4496 0001045  72.9707 287.1370 14.79940058 35772
KUIPER-00153            
1 65773U 25217M   26141.09422561  .00001730  00000+0  25610-3 0  9995
2 65773  51.9033  65.4907 0000917 107.5576 252.5487 14.79896938 35847
KUIPER-00155            
1 65774U 25217N   26140.92124689  .00002459  00000+0  35149-3 0  9994
2 65774  51.9038  38.7197 0001064 122.3473 237.7593 14.79927797 36204
KUIPER-00156            
1 65775U 25217P   26141.06038805  .00002341  00000+0  33593-3 0  9996
2 65775  51.9033  65.6209 0000842  99.9181 260.1877 14.79941782 35834
KUIPER-00163            
1 65777U 25217R   26141.26992948  .00101317  00000+0  51538-3 0  9999
2 65777  51.8956  45.2441 0002513 127.5095 232.6139 15.80646617 36131
KUIPER-00165            
1 65778U 25217S   26141.11713295 -.00000241  00000+0 -25624-5 0  9995
2 65778  51.9000  75.3258 0001016  81.1865 278.9212 14.79937650 35704
KUIPER-00166            
1 65779U 25217T   26141.02931936  .00002290  00000+0  32942-3 0  9993
2 65779  51.9031  63.2532 0000672  99.9555 260.1484 14.79920361 35862
KUIPER-00167            
1 65780U 25217U   26141.03880467 -.00000210  00000+0  14538-5 0  9992
2 65780  51.8958  85.6066 0000782  82.4626 277.6425 14.79930937 35553
KUIPER-00168            
1 65781U 25217V   26140.99015871 -.00000234  00000+0 -16965-5 0  9999
2 65781  51.9028  68.3915 0000917  85.0337 275.0731 14.79931092 35793
